{
  "norad_id": 68806,
  "name": "STARLINK-37370",
  "history": [
    {
      "epoch": "2026-04-27T14:27:12.259872Z",
      "apogee_km": 269.6389736727597,
      "perigee_km": 268.48488699447444,
      "latitude_deg": 2.624324896311923e-05,
      "longitude_deg": -109.63436841654459,
      "height_km": 272.4102150561198,
      "semi_major_axis_km": 6647.198930333617,
      "eccentricity": 8.681e-05,
      "inclination_deg": 97.2867,
      "raan_deg": 322.7564,
      "arg_perigee_deg": 104.6046,
      "mean_anomaly_deg": 255.533,
      "mean_motion_rev_day": 16.01934475
    }
  ]
}