STARLINK-37370          
1 68806U 26089E   26117.60222523 -.01015297  34464-3 -17996-2 0  9997
2 68806  97.2867 322.7564 0000868 104.6046 255.5330 16.01934475   723
